#dP2023  3  1 12  0  0.00000000      96 __u+U ITR00 EXT  IAC
## 2251 302400.00000000   900.00000000 60004 0.5000000000000
+  118   C06C07C08C09C10C11C12C13C14C16C19C20C21C22C23C24C25
+        C26C27C28C29C30C32C33C34C35C36C37C38C39C40C41C42C43
+        C44C45C46E01E02E03E04E05E07E08E09E10E11E12E14E15E18
+        E19E21E24E25E26E27E30E31E33E34E36G01G02G03G04G05G06
+        G07G08G09G10G11G12G13G14G15G16G17G18G19G20G21G22G23
+        G24G25G26G27G28G29G30G32J02J03J04R01R02R03R04R05R07
+        R08R09R11R12R13R14R15R16R17R18R19R20R21R22R24R25  0
++         0  0  0  0  0  0  0  0  0  0  0  0  0  0  0  0  0
++         0  0  0  0  0  0  0  0  0  0  0  0  0  0  0  0  0
++         0  0  0  0  0  0  0  0  0  0  0  0  0  0  0  0  0
++         0  0  0  0  0  0  0  0  0  0  0  0  0  0  0  0  0
++         0  0  0  0  0  0  0  0  0  0  0  0  0  0  0  0  0
++         0  0  0  0  0  0  0  0  0  0  0  0  0  0  0  0  0
++         0  0  0  0  0  0  0  0  0  0  0  0  0  0  0  0  0
%c M  cc GPS ccc cccc cccc cccc cccc ccccc ccccc ccccc ccccc
%c cc cc ccc ccc cccc cccc cccc cccc ccccc ccccc ccccc ccccc
%f  0.0000000  0.000000000  0.00000000000  0.000000000000000
%f  0.0000000  0.000000000  0.00000000000  0.000000000000000
%i    0    0    0    0      0      0      0      0         0
%i    0    0    0    0      0      0      0      0         0
/* IAC                                ULTRA-RAPID PREDICTION
/* S/V CLOCKS ARE ALIGNED TO GNSS TIME                      
/* G:C1WC2W R:C1PC2P E:C1XC5X C:C2IC6I J:C1CC2S             
/* PCV:IGS20_2247 OL/AL:FES2004  NONE     YN ORB:CoN CLK:CoN
*  2023 03 01 21  0  0.00000000
PC06  -1886.163549  33429.904027  25800.038908   -193.714472
PC07 -15024.711901  26767.211217 -28919.080182     41.842984
PC08 -15585.108656  38473.417418   6827.139282    522.723639
PC09   4488.919078  37728.046598  19248.836563    876.072954
PC10  -7308.442983  27434.157688 -30979.112576      0.445488
PC11 -17632.414198 -21640.000505     85.276749    -92.692541
PC12  -4480.583610 -22182.909244  16366.354522    481.214357
PC13 -10462.977952  38877.923694  12238.094942    219.537057
PC14 -16574.391362 -10549.133772 -19818.150678    538.357725
PC16  -3190.654435  32065.853184  27553.164836    149.850607
PC19  23911.208607   4702.023051  13609.010639   -894.890236
PC20   8293.253101  14086.522717  22630.819584    700.560769
PC21  13569.193305 -15661.498682 -18659.371624   -909.315677
PC22  26498.895290  -7846.642264  -3768.373246   -607.562461
PC23 -17830.458814  10979.520912  18439.633620   -882.684380
PC24  -1071.637324 -24882.254170  12596.696065   -348.246767
PC25 -14244.170349  -8476.571791  22438.838550     80.387918
PC26  10383.266029 -25756.542929  -2954.132493    -85.803092
PC27  -3472.903327  18239.507216 -20857.190348    104.191209
PC28 -17077.760433   3324.546353 -21813.859437     76.123130
PC29  22059.535242  14350.612472   9288.716145     87.764769
PC30  12910.484487  23113.954340  -8870.863620      1.016510
PC32 -13526.291830  15788.784546  18640.581910   -609.656314
PC33 -23922.494233  -4590.877313 -13621.536184   -871.301726
PC34 -13796.676776 -22981.341647   7702.181741    117.109745
PC35  17694.639061  -2856.940805  21390.549189    671.999837
PC36  13724.260930   9521.671003 -22338.079971   -592.456305
PC37 -11753.366496  24933.041389   4274.127421   -810.594236
PC38 -19502.150987  37241.380657  -1999.159533     62.124843
PC39  -7291.637967  27500.095137  31224.892484     -1.995545
PC40 -20806.190558  20257.046480 -30665.412122    -16.402061
PC41 -26656.156194   7636.787781   3229.130239   -671.481590
PC42  -6935.059254 -14513.808013 -22757.455831   -809.832936
PC43 -21937.867903 -14956.399695  -8554.312148      9.653421
PC44   3099.657546 -18281.227634  20832.055551     30.918246
PC45  17729.826199 -11456.165640 -18272.345330    -66.746330
PC46   2309.818528  23992.917755 -14036.416701    -36.866108
PE01   5627.948325  16566.579974 -23880.437446   -599.286997
PE02  -6059.491420 -16280.474280  23959.311256     23.776590
PE03 -18065.824744 -17928.755109 -15119.200575   -654.934472
PE04  28226.769829   8605.290576  -2325.737200    -69.078521
PE05   2997.804697 -16924.199937 -24093.699049    -90.569980
PE07 -22095.121338   5955.381883  18786.379864    -26.661705
PE08 -28223.899664  -8668.193588   2177.725929    -44.172011
PE09  22168.731153  -5759.170329 -18739.168621   -853.720056
PE10  16037.940341  -1138.555423  24849.659849   -515.979924
PE11  12892.754329 -13182.558267  23144.100367   1081.377819
PE12  16520.818133   9989.324454  22446.613153   -440.877519
PE14   7530.960100  20453.191245 -17801.404505    156.261617
PE15 -16436.152246 -10318.934916 -22337.110399     -4.515667
PE18 -23314.606646 -17396.218841   5462.072989   -333.128052
PE19  15614.592688  18438.124901  17111.775940  -3113.192236
PE21 -11929.765110  22856.965948 -14540.916546   -515.032663
PE24  24476.445258 -16022.041760  -4632.629242  -1141.579621
PE25  12238.063984 -22869.864499  14268.383889   -600.432979
PE26  -1778.684695  27775.568238 -10078.075988     32.950019
PE27 -24164.716724  16647.341126   3821.553758   -524.349047
PE30 -21741.964673      2.983275  20061.254874  -1282.655564
PE31  22048.788363   -705.333777 -19741.435438   -517.382480
PE33  10003.076447  26691.581724   8017.273654   -450.598952
PE34 -10131.452475 -26587.906460  -8163.433400    -32.674868
PE36   2212.736059 -27432.359222  10883.017493    -19.823762
PG01  13444.187008  -7050.474281  21423.714978    207.166024
PG02 -11705.661737  11994.502660 -20040.932042   -617.427195
PG03  22818.171143 -12181.932301   5634.524953   -356.556817
PG04  20647.080236  -2911.056151 -16508.523434    -16.673111
PG05 -19508.481999   -429.460559 -18241.383877   -117.826662
PG06  -5431.699861 -25616.155274  -4052.957265    577.566975
PG07   7889.664936 -20469.155433 -14178.440402    231.564208
PG08  25426.594969   5624.141232   6135.078709   -110.894381
PG09  11052.717855 -11673.622133 -21222.954609   -208.903844
PG10  -3889.792317  18573.562211  18626.242634    -26.795461
PG11 -12156.442104 -17462.157517 -15908.316222   -117.953315
PG12 -23700.422161   9371.027883   7013.365210   -346.350281
PG13 -22997.081265 -13478.878689    629.428327    483.910935
PG14   7096.454539 -19395.733277  16631.251259    -15.025991
PG15 -25810.094763  -2677.814055   5846.547148     17.792799
PG16  18101.344979   4613.748681 -19356.391842   -517.719114
PG17  -2845.869466 -17067.146350  20555.465591    703.030520
PG18  -5647.303961  23167.966867 -11540.693064   -161.490855
PG19 -13427.144577 -18331.005039  13748.125259    284.329810
PG20 -12149.110321  -9690.526022 -21498.146230    447.643311
PG21  16006.952238   2664.259513  21727.432120    154.210662
PG22  15956.337042  17971.197901  11929.702268    436.927464
PG23 -14506.837927  19901.021957   9760.129853      8.420381
PG24 -15390.171077   2706.709122  21128.442763    -94.362345
PG25 -20191.903350  16955.421971  -1826.897173    424.217633
PG26   7325.023257  14337.061027 -21204.018640    241.815740
PG27  22875.968836  13246.717208  -4566.562872     90.745104
PG28   5391.367103  25929.945542  -2075.100557     30.361954
PG29 -14782.555936   7943.169015 -20654.378740   -588.750575
PG30   -385.185927 -26208.888939  -3192.126299   -528.560023
PG32   7021.359317  17434.974033  19013.935812   -411.036751
PJ02 -35996.499728  21805.527743   1672.109982     -1.060960
PJ03 -20368.924989  22930.785439 -24319.494547      0.574565
PJ04 -27501.552418  30630.084873  15088.679573     94.192628
PR01 -23539.631840   4945.077517   8516.207210     23.962089
PR02  -8779.184125  10202.556073  21701.321334    -23.206123
PR03  10517.356768   9853.243650  21111.440447     73.385311
PR04  23546.050549   4070.424209   8977.256623    177.722120
PR05  23899.482140  -3811.456424  -8083.224652    108.551816
PR07 -11251.088293  -9658.968144 -20697.160991     50.906119
PR08 -23649.843627  -3843.459893  -8645.285963    -69.673695
PR09  10363.351300 -23042.469868   3219.977564    106.796507
PR11 -10454.741281  -3610.887345  22990.750573    -11.585466
PR12 -15671.875736  14459.841312  14002.167783     25.347147
PR13 -11463.777402  22739.589237  -1447.717693    -32.561941
PR14    274.527024  17901.026983 -18171.884943     24.364839
PR15  11086.658237   2635.323197 -22808.733702     90.739265
PR16  15463.302286 -14359.286625 -14306.876344     11.866622
PR17  11682.903998  22480.912508  -2814.161214    609.105509
PR18  15611.566096  15107.375869  13433.743424     69.313326
PR19  12087.391421   1490.776318  22414.979352   -223.689646
PR20    232.549281 -17243.564848  18784.282957    -88.573904
PR21 -12307.171451 -22327.123666   1103.747585   -377.108866
PR22 -15264.031765 -14859.366746 -13989.067432     73.069783
PR24    474.666212  17871.893616 -18173.263722    150.487281
PR25 -10435.019957 -23077.686046   3106.861131     56.503739
EOF
